NORAD_CAT_ID,OBJECT_NAME,OBJECT_TYPE,EPOCH,MEAN_MOTION,ECCENTRICITY,INCLINATION,RA_OF_ASC_NODE,ARG_OF_PERICENTER,MEAN_ANOMALY,BSTAR,MEAN_MOTION_DOT,MEAN_MOTION_DDOT,TLE_LINE0,TLE_LINE1,TLE_LINE2,SEMIMAJOR_AXIS,PERIOD,APOGEE,PERIGEE,DECAYED
56795.0,STARLINK-6061,PAYLOAD,2024-03-25 22:27:04,14.98340443,0.0002879,69.9991,323.9384,265.6172,94.4658,6.2194e-07,-8.6e-07,0.0,0 STARLINK-6061,1 56795U 23078AE  24085.93546879 -.00000086  00000-0  62194-6 0  9995,2 56795  69.9991 323.9384 0002879 265.6172  94.4658 14.98340443 46268,6950.161,96.106,574.027,570.025,0.0
56795.0,STARLINK-6061,PAYLOAD,2024-03-26 09:40:01,14.98334529,0.0002345,70.0015,322.7602,279.0469,81.0425,-0.00013555,-1.71e-05,0.0,0 STARLINK-6061,1 56795U 23078AE  24086.40279534 -.00001710  00000-0 -13555-3 0  9999,2 56795  70.0015 322.7602 0002345 279.0469  81.0425 14.98334529 46334,6950.179,96.107,573.674,570.414,0.0
56795.0,STARLINK-6061,PAYLOAD,2024-03-26 20:52:58,14.98322635,0.000281,69.9991,321.5812,267.1984,92.8854,-6.863e-05,-9.12e-06,0.0,0 STARLINK-6061,1 56795U 23078AE  24086.87012165 -.00000912  00000-0 -68630-4 0  9993,2 56795  69.9991 321.5812 0002810 267.1984  92.8854 14.98322635 46668,6950.216,96.107,574.034,570.128,0.0
56795.0,STARLINK-6061,PAYLOAD,2024-03-26 22:29:06,14.98323068,0.0002543,69.9998,321.4131,262.9826,97.1044,-5.3557e-05,-7.32e-06,0.0,0 STARLINK-6061,1 56795U 23078AE  24086.93688137 -.00000732  00000-0 -53557-4 0  9990,2 56795  69.9998 321.4131 0002543 262.9826  97.1044 14.98323068 46412,6950.214,96.107,573.847,570.312,0.0
56795.0,STARLINK-6061,PAYLOAD,2024-03-27 01:41:22,14.9832411,0.0002848,69.9992,321.0768,268.7781,91.3051,-5.2909e-05,-7.24e-06,0.0,0 STARLINK-6061,1 56795U 23078AE  24087.07040107 -.00000724  00000-0 -52909-4 0  9996,2 56795  69.9992 321.0768 0002848 268.7781  91.3051 14.98324110 46435,6950.211,96.107,574.056,570.097,0.0
56795.0,STARLINK-6061,PAYLOAD,2024-03-27 20:54:54,14.98401433,0.0003103,69.9997,319.0565,269.3135,90.7668,0.00077252,9.154e-05,0.0,0 STARLINK-6061,1 56795U 23078AE  24087.87145888  .00009154  00000-0  77252-3 0  9997,2 56795  69.9997 319.0565 0003103 269.3135  90.7668 14.98401433 46810,6949.972,96.102,573.994,569.68,0.0
56795.0,STARLINK-6061,PAYLOAD,2024-03-27 22:31:03,14.98382721,0.0003242,69.9991,318.8871,271.7178,88.361,0.00047542,5.592e-05,0.0,0 STARLINK-6061,1 56795U 23078AE  24087.93823363  .00005592  00000-0  47542-3 0  9996,2 56795  69.9991 318.8871 0003242 271.7178  88.3610 14.98382721 46569,6950.03,96.104,574.148,569.642,0.0
56795.0,STARLINK-6061,PAYLOAD,2024-03-28 01:43:22,14.98348134,0.0003255,69.9989,318.5507,274.276,85.8027,8.8811e-05,9.67e-06,0.0,0 STARLINK-6061,1 56795U 23078AE  24088.07178284  .00000967  00000-0  88811-4 0  9993,2 56795  69.9989 318.5507 0003255 274.2760  85.8027 14.98348134 46843,6950.137,96.106,574.264,569.74,0.0
56795.0,STARLINK-6061,PAYLOAD,2024-03-28 08:07:54,14.9834135,0.0003099,69.9993,317.8776,273.0674,87.0131,5.8633e-06,-2.3e-07,0.0,0 STARLINK-6061,1 56795U 23078AE  24088.33882752 -.00000023  00000-0  58633-5 0  9998,2 56795  69.9993 317.8776 0003099 273.0674  87.0131 14.98341350 46882,6950.158,96.106,574.177,569.869,0.0
56795.0,STARLINK-6061,PAYLOAD,2024-03-28 14:32:27,14.98329684,0.0002791,70.0001,317.2059,268.9125,91.1714,0.00015423,1.748e-05,0.0,0 STARLINK-6061,1 56795U 23078AE  24088.60587126  .00001748  00000-0  15423-3 0  9997,2 56795  70.0001 317.2059 0002791 268.9125  91.1714 14.98329684 46660,6950.194,96.107,573.999,570.119,0.0
56795.0,STARLINK-6061,PAYLOAD,2024-03-28 22:33:07,14.98327606,0.0002479,70.0009,316.3639,262.4993,97.5884,0.00016866,1.92e-05,0.0,0 STARLINK-6061,1 56795U 23078AE  24088.93967210  .00001920  00000-0  16866-3 0  9993,2 56795  70.0009 316.3639 0002479 262.4993  97.5884 14.98327606 46713,6950.2,96.107,573.788,570.342,0.0
56795.0,STARLINK-6061,PAYLOAD,2024-03-29 08:09:56,14.98338083,0.0002681,70.0009,315.3531,269.7443,90.3409,-0.00013028,-1.647e-05,0.0,0 STARLINK-6061,1 56795U 23078AE  24089.34023249 -.00001647  00000-0 -13028-3 0  9999,2 56795  70.0009 315.3531 0002681 269.7443  90.3409 14.98338083 46779,6950.168,96.106,573.896,570.17,0.0
56795.0,STARLINK-6061,PAYLOAD,2024-03-29 20:59:01,14.98352288,0.0001404,70.0028,314.0096,269.6513,90.4485,-0.00059075,-7.138e-05,0.0,0 STARLINK-6061,1 56795U 23078AE  24089.87432743 -.00007138  00000-0 -59075-3 0  9993,2 56795  70.0028 314.0096 0001404 269.6513  90.4485 14.98352288 47118,6950.124,96.106,572.965,571.013,0.0
56795.0,STARLINK-6061,PAYLOAD,2024-03-29 22:35:11,14.98338008,0.0003444,69.9988,313.8364,272.5107,87.5658,-0.00098455,-0.00011824,0.0,0 STARLINK-6061,1 56795U 23078AE  24089.94110438 -.00011824  00000-0 -98455-3 0  9997,2 56795  69.9988 313.8364 0003444 272.5107  87.5658 14.98338008 46867,6950.168,96.106,574.427,569.639,0.0
56795.0,STARLINK-6061,PAYLOAD,2024-03-30 08:11:57,14.98333884,0.0003141,69.9981,312.8274,271.6802,88.3997,-0.00013848,-1.745e-05,0.0,0 STARLINK-6061,1 56795U 23078AE  24090.34164287 -.00001745  00000-0 -13848-3 0  9998,2 56795  69.9981 312.8274 0003141 271.6802  88.3997 14.98333884 47183,6950.181,96.107,574.229,569.863,0.0
56795.0,STARLINK-6061,PAYLOAD,2024-03-30 22:37:10,14.98334363,0.0002886,69.9994,311.3115,271.5075,88.5754,4.9938e-05,5.03e-06,0.0,0 STARLINK-6061,1 56795U 23078AE  24090.94247785  .00000503  00000-0  49938-4 0  9998,2 56795  69.9994 311.3115 0002886 271.5075  88.5754 14.98334363 47019,6950.179,96.107,574.05,570.039,0.0
56795.0,STARLINK-6061,PAYLOAD,2024-03-31 08:13:57,14.9833935,0.0002826,69.9997,310.3025,270.9435,89.1401,0.00012433,1.391e-05,0.0,0 STARLINK-6061,1 56795U 23078AE  24091.34303188  .00001391  00000-0  12433-3 0  9998,2 56795  69.9997 310.3025 0002826 270.9435  89.1401 14.98339350 47330,6950.164,96.106,573.993,570.065,0.0
56795.0,STARLINK-6061,PAYLOAD,2024-03-31 14:38:30,14.98329865,0.0002826,69.9988,309.6293,270.0437,90.0399,0.00038978,4.561e-05,0.0,0 STARLINK-6061,1 56795U 23078AE  24091.61006974  .00004561  00000-0  38978-3 0  9995,2 56795  69.9988 309.6293 0002826 270.0437  90.0399 14.98329865 47114,6950.193,96.107,574.022,570.094,0.0
56795.0,STARLINK-6061,PAYLOAD,2024-03-31 21:03:02,14.98317382,0.0003161,69.9986,308.9563,272.9347,87.145,0.00067272,7.94e-05,0.0,0 STARLINK-6061,1 56795U 23078AE  24091.87710741  .00007940  00000-0  67272-3 0  9990,2 56795  69.9986 308.9563 0003161 272.9347  87.1450 14.98317382 47158,6950.232,96.108,574.294,569.9,0.0
56795.0,STARLINK-6061,PAYLOAD,2024-04-01 13:04:23,14.98335812,0.0002688,69.9983,307.273,273.0001,87.0851,3.3309e-05,3.05e-06,0.0,0 STARLINK-6061,1 56795U 23078AE  24092.54471376  .00000305  00000-0  33309-4 0  9996,2 56795  69.9983 307.2730 0002688 273.0001  87.0851 14.98335812 47517,6950.175,96.107,573.908,570.172,0.0
56795.0,STARLINK-6061,PAYLOAD,2024-04-02 00:17:19,14.98334878,0.0002954,69.9983,306.0948,270.4767,89.6054,-0.00011894,-1.512e-05,0.0,0 STARLINK-6061,1 56795U 23078AE  24093.01203621 -.00001512  00000-0 -11894-3 0  9992,2 56795  69.9983 306.0948 0002954 270.4767  89.6054 14.98334878 47324,6950.178,96.107,574.096,569.99,0.0
56795.0,STARLINK-6061,PAYLOAD,2024-04-02 17:54:48,14.98338589,0.0002908,69.9983,304.2429,270.6618,89.4208,-0.00014469,-1.819e-05,0.0,0 STARLINK-6061,1 56795U 23078AE  24093.74639094 -.00001819  00000-0 -14469-3 0  9990,2 56795  69.9983 304.2429 0002908 270.6618  89.4208 14.98338589 47696,6950.166,96.106,574.052,570.01,0.0
56795.0,STARLINK-6061,PAYLOAD,2024-04-02 21:07:04,14.98337556,0.0002899,69.9985,303.9063,270.1842,89.8985,-0.00011445,-1.459e-05,0.0,0 STARLINK-6061,1 56795U 23078AE  24093.87991006 -.00001459  00000-0 -11445-3 0  9999,2 56795  69.9985 303.9063 0002899 270.1842  89.8985 14.98337556 47454,6950.17,96.107,574.049,570.02,0.0
56795.0,STARLINK-6061,PAYLOAD,2024-04-03 06:43:51,14.98367711,0.0003052,69.9985,302.8961,274.4888,85.5923,-0.00062949,-7.603e-05,0.0,0 STARLINK-6061,1 56795U 23078AE  24094.28045995 -.00007603  00000-0 -62949-3 0  9994,2 56795  69.9985 302.8961 0003052 274.4888  85.5923 14.98367711 47774,6950.076,96.105,574.062,569.82,0.0
56795.0,STARLINK-6061,PAYLOAD,2024-04-03 17:56:48,14.98328361,0.000283,69.9982,301.7175,272.1334,87.9501,4.6371e-05,4.6e-06,0.0,0 STARLINK-6061,1 56795U 23078AE  24094.74778892  .00000460  00000-0  46371-4 0  9998,2 56795  69.9982 301.7175 0002830 272.1334  87.9501 14.98328361 47844,6950.198,96.107,574.03,570.096,0.0
56795.0,STARLINK-6061,PAYLOAD,2024-04-03 19:32:57,14.98324283,0.0003011,69.9982,301.5494,269.9129,90.1685,0.00011129,1.235e-05,0.0,0 STARLINK-6061,1 56795U 23078AE  24094.81454926  .00001235  00000-0  11129-3 0  9998,2 56795  69.9982 301.5494 0003011 269.9129  90.1685 14.98324283 47594,6950.211,96.107,574.168,569.983,0.0
56795.0,STARLINK-6061,PAYLOAD,2024-04-04 14:46:33,14.98328377,0.0002895,69.9981,299.5284,269.7698,90.313,-9.2816e-06,-2.04e-06,0.0,0 STARLINK-6061,1 56795U 23078AE  24095.61567026 -.00000204  00000-0 -92816-5 0  9994,2 56795  69.9981 299.5284 0002895 269.7698  90.3130 14.98328377 47713,6950.198,96.107,574.075,570.051,0.0
56795.0,STARLINK-6061,PAYLOAD,2024-04-04 19:34:58,14.98327292,0.0002789,69.998,299.024,265.0819,95.0022,-2.9882e-05,-4.49e-06,0.0,0 STARLINK-6061,1 56795U 23078AE  24095.81595170 -.00000449  00000-0 -29882-4 0  9990,2 56795  69.9980 299.0240 0002789 265.0819  95.0022 14.98327292 48005,6950.201,96.107,574.005,570.128,0.0
56795.0,STARLINK-6061,PAYLOAD,2024-04-04 21:11:06,14.98327495,0.0002895,69.998,298.8556,267.9158,92.1669,-2.7852e-05,-4.25e-06,0.0,0 STARLINK-6061,1 56795U 23078AE  24095.88271157 -.00000425  00000-0 -27852-4 0  9992,2 56795  69.9980 298.8556 0002895 267.9158  92.1669 14.98327495 47758,6950.201,96.107,574.078,570.054,0.0
56795.0,STARLINK-6061,PAYLOAD,2024-04-05 14:48:34,14.98331672,0.0002963,69.9979,297.0041,268.7668,91.3152,3.8395e-05,3.65e-06,0.0,0 STARLINK-6061,1 56795U 23078AE  24096.61706653  .00000365  00000-0  38395-4 0  9993,2 56795  69.9979 297.0041 0002963 268.7668  91.3152 14.98331672 47869,6950.188,96.107,574.112,569.993,0.0
